{
  "links" : {
    "next" : "https://api.nasa.gov/neo/rest/v1/feed?start_date=2013-06-09&end_date=2013-06-09&detailed=true&api_key=t0TVs3DtDT2H8Oy2Zy8m2eVrNsAVKAexjcZXUckd",
    "prev" : "https://api.nasa.gov/neo/rest/v1/feed?start_date=2013-06-07&end_date=2013-06-07&detailed=true&api_key=t0TVs3DtDT2H8Oy2Zy8m2eVrNsAVKAexjcZXUckd",
    "self" : "https://api.nasa.gov/neo/rest/v1/feed?start_date=2013-06-08&end_date=2013-06-08&detailed=true&api_key=t0TVs3DtDT2H8Oy2Zy8m2eVrNsAVKAexjcZXUckd"
  },
  "element_count" : 11,
  "near_earth_objects" : {
    "2013-06-08" : [ {
      "links" : {
        "self" : "https://api.nasa.gov/neo/rest/v1/neo/3367721?api_key=t0TVs3DtDT2H8Oy2Zy8m2eVrNsAVKAexjcZXUckd"
      },
      "neo_reference_id" : "3367721",
      "name" : "(2007 CS5)",
      "nasa_jpl_url" : "http://ssd.jpl.nasa.gov/sbdb.cgi?sstr=3367721",
      "absolute_magnitude_h" : 24.6,
      "estimated_diameter" : {
        "kilometers" : {
          "estimated_diameter_min" : 0.0319561887,
          "estimated_diameter_max" : 0.0714562102
        },
        "meters" : {
          "estimated_diameter_min" : 31.9561886721,
          "estimated_diameter_max" : 71.4562101727
        },
        "miles" : {
          "estimated_diameter_min" : 0.0198566489,
          "estimated_diameter_max" : 0.0444008168
        },
        "feet" : {
          "estimated_diameter_min" : 104.8431420431,
          "estimated_diameter_max" : 234.436392583
        }
      },
      "is_potentially_hazardous_asteroid" : false,
      "close_approach_data" : [ {
        "close_approach_date" : "2013-06-08",
        "epoch_date_close_approach" : 1370674800000,
        "relative_velocity" : {
          "kilometers_per_second" : "18.9664744094",
          "kilometers_per_hour" : "68279.3078739369",
          "miles_per_hour" : "42426.106606447"
        },
        "miss_distance" : {
          "astronomical" : "0.4678991849",
          "lunar" : "182.0127716064",
          "kilometers" : "69996720",
          "miles" : "43493944"
        },
        "orbiting_body" : "Earth"
      } ],
      "orbital_data" : {
        "orbit_id" : "9",
        "orbit_determination_date" : "2017-04-06 09:07:06",
        "orbit_uncertainty" : "6",
        "minimum_orbit_intersection" : ".000535153",
        "jupiter_tisserand_invariant" : "6.163",
        "epoch_osculation" : "2458000.5",
        "eccentricity" : ".1728085159740721",
        "semi_major_axis" : ".9803422898631016",
        "inclination" : ".7509654073569197",
        "ascending_node_longitude" : "125.2627554134832",
        "orbital_period" : "354.5398309060209",
        "perihelion_distance" : ".8109307936052353",
        "perihelion_argument" : "261.4133042919115",
        "aphelion_distance" : "1.149753786120968",
        "perihelion_time" : "2457951.266702117017",
        "mean_anomaly" : "49.991526177977",
        "mean_motion" : "1.015400721211001",
        "equinox" : "J2000"
      }
    }, {
      "links" : {
        "self" : "https://api.nasa.gov/neo/rest/v1/neo/3589298?api_key=t0TVs3DtDT2H8Oy2Zy8m2eVrNsAVKAexjcZXUckd"
      },
      "neo_reference_id" : "3589298",
      "name" : "(2011 WN46)",
      "nasa_jpl_url" : "http://ssd.jpl.nasa.gov/sbdb.cgi?sstr=3589298",
      "absolute_magnitude_h" : 21.1,
      "estimated_diameter" : {
        "kilometers" : {
          "estimated_diameter_min" : 0.160160338,
          "estimated_diameter_max" : 0.358129403
        },
        "meters" : {
          "estimated_diameter_min" : 160.1603379786,
          "estimated_diameter_max" : 358.1294030194
        },
        "miles" : {
          "estimated_diameter_min" : 0.0995189894,
          "estimated_diameter_max" : 0.2225312253
        },
        "feet" : {
          "estimated_diameter_min" : 525.4604432536,
          "estimated_diameter_max" : 1174.9652706022
        }
      },
      "is_potentially_hazardous_asteroid" : true,
      "close_approach_data" : [ {
        "close_approach_date" : "2013-06-08",
        "epoch_date_close_approach" : 1370674800000,
        "relative_velocity" : {
          "kilometers_per_second" : "28.8787784037",
          "kilometers_per_hour" : "103963.6022532433",
          "miles_per_hour" : "64598.9394111889"
        },
        "miss_distance" : {
          "astronomical" : "0.4597247452",
          "lunar" : "178.8329315186",
          "kilometers" : "68773848",
          "miles" : "42734084"
        },
        "orbiting_body" : "Earth"
      } ],
      "orbital_data" : {
        "orbit_id" : "5",
        "orbit_determination_date" : "2017-04-06 08:51:52",
        "orbit_uncertainty" : "8",
        "minimum_orbit_intersection" : ".0453591",
        "jupiter_tisserand_invariant" : "5.305",
        "epoch_osculation" : "2455894.5",
        "eccentricity" : ".4146157825907795",
        "semi_major_axis" : "1.145901836485059",
        "inclination" : "26.5776812715279",
        "ascending_node_longitude" : "43.10870728351203",
        "orbital_period" : "448.042848896751",
        "perihelion_distance" : ".6707928497785951",
        "perihelion_argument" : "104.1086815207847",
        "aphelion_distance" : "1.621010823191524",
        "perihelion_time" : "2455954.134381032213",
        "mean_anomaly" : "312.0840981516392",
        "mean_motion" : ".8034945784459111",
        "equinox" : "J2000"
      }
    }, {
      "links" : {
        "self" : "https://api.nasa.gov/neo/rest/v1/neo/3639547?api_key=t0TVs3DtDT2H8Oy2Zy8m2eVrNsAVKAexjcZXUckd"
      },
      "neo_reference_id" : "3639547",
      "name" : "(2013 LR6)",
      "nasa_jpl_url" : "http://ssd.jpl.nasa.gov/sbdb.cgi?sstr=3639547",
      "absolute_magnitude_h" : 27.8,
      "estimated_diameter" : {
        "kilometers" : {
          "estimated_diameter_min" : 0.0073207399,
          "estimated_diameter_max" : 0.016369672
        },
        "meters" : {
          "estimated_diameter_min" : 7.3207398935,
          "estimated_diameter_max" : 16.3696720474
        },
        "miles" : {
          "estimated_diameter_min" : 0.0045488955,
          "estimated_diameter_max" : 0.0101716395
        },
        "feet" : {
          "estimated_diameter_min" : 24.0181762721,
          "estimated_diameter_max" : 53.70627484
        }
      },
      "is_potentially_hazardous_asteroid" : false,
      "close_approach_data" : [ {
        "close_approach_date" : "2013-06-08",
        "epoch_date_close_approach" : 1370674800000,
        "relative_velocity" : {
          "kilometers_per_second" : "9.8819214136",
          "kilometers_per_hour" : "35574.9170889195",
          "miles_per_hour" : "22104.8700100567"
        },
        "miss_distance" : {
          "astronomical" : "0.0007424279",
          "lunar" : "0.2888044417",
          "kilometers" : "111065.6328125",
          "miles" : "69012.984375"
        },
        "orbiting_body" : "Earth"
      } ],
      "orbital_data" : {
        "orbit_id" : "6",
        "orbit_determination_date" : "2017-04-06 08:45:39",
        "orbit_uncertainty" : "6",
        "minimum_orbit_intersection" : ".00160032",
        "jupiter_tisserand_invariant" : "3.643",
        "epoch_osculation" : "2458000.5",
        "eccentricity" : ".5217141175845252",
        "semi_major_axis" : "2.014800580378091",
        "inclination" : "2.525017762804435",
        "ascending_node_longitude" : "76.3767331350966",
        "orbital_period" : "1044.591596705786",
        "perihelion_distance" : ".9636506734773459",
        "perihelion_argument" : "213.4977324829443",
        "aphelion_distance" : "3.065950487278836",
        "perihelion_time" : "2457523.008731961284",
        "mean_anomaly" : "164.558911861851",
        "mean_motion" : ".3446322956601341",
        "equinox" : "J2000"
      }
    } ]
  }
}